{
 "generated_at": "2026-06-14T08:41:33Z",
 "sources": [
  {
   "name": "CelesTrak",
   "url": "https://celestrak.org/NORAD/elements/",
   "license": "frei verfügbar; Attribution. Ursprünglich USSPACECOM/Space-Track."
  },
  {
   "name": "GCAT (J. McDowell, planet4589.org)",
   "url": "https://planet4589.org/space/gcat/",
   "license": "CC-BY 4.0"
  }
 ],
 "satellites": [
  {
   "norad": 68291,
   "name": "STRIX-6",
   "intl": "2026-056A",
   "group": "sar",
   "gcat": {
    "class": "B",
    "category": "IMG-R",
    "owner": "SYNSP",
    "state": "J"
   },
   "omm": {
    "OBJECT_NAME": "STRIX-6",
    "OBJECT_ID": "2026-056A",
    "EPOCH": "2026-06-13T06:19:59.263104",
    "MEAN_MOTION": 15.00143369,
    "ECCENTRICITY": 0.0016334,
    "INCLINATION": 50.284,
    "RA_OF_ASC_NODE": 8.3419,
    "ARG_OF_PERICENTER": 228.6665,
    "MEAN_ANOMALY": 131.2879,
    "EPHEMERIS_TYPE": 0,
    "CLASSIFICATION_TYPE": "U",
    "NORAD_CAT_ID": 68291,
    "ELEMENT_SET_NO": 999,
    "REV_AT_EPOCH": 1268,
    "BSTAR": 0.00027927,
    "MEAN_MOTION_DOT": 0.0000327,
    "MEAN_MOTION_DDOT": 0
   }
  },
  {
   "norad": 69177,
   "name": "STRIX-7",
   "intl": "2026-112A",
   "group": "sar",
   "gcat": {
    "class": "B",
    "category": "IMG-R",
    "owner": "SYNSP",
    "state": "J"
   },
   "omm": {
    "OBJECT_NAME": "STRIX-7",
    "OBJECT_ID": "2026-112A",
    "EPOCH": "2026-06-13T20:17:42.848448",
    "MEAN_MOTION": 15.0142308,
    "ECCENTRICITY": 0.00234612,
    "INCLINATION": 44.9059,
    "RA_OF_ASC_NODE": 210.0001,
    "ARG_OF_PERICENTER": 27.9913,
    "MEAN_ANOMALY": 332.2215,
    "EPHEMERIS_TYPE": 0,
    "CLASSIFICATION_TYPE": "U",
    "NORAD_CAT_ID": 69177,
    "ELEMENT_SET_NO": 999,
    "REV_AT_EPOCH": 337,
    "BSTAR": 0.00022127459,
    "MEAN_MOTION_DOT": 0.00002682,
    "MEAN_MOTION_DDOT": 0
   }
  },
  {
   "norad": 37849,
   "name": "SUOMI NPP",
   "intl": "2011-061A",
   "group": "weather",
   "gcat": {
    "class": "C",
    "category": "MET",
    "owner": "GSFC/NOAA",
    "state": "US"
   },
   "omm": {
    "OBJECT_NAME": "SUOMI NPP",
    "OBJECT_ID": "2011-061A",
    "EPOCH": "2026-06-13T22:58:23.083104",
    "MEAN_MOTION": 14.19516754,
    "ECCENTRICITY": 0.00017149,
    "INCLINATION": 98.7954,
    "RA_OF_ASC_NODE": 105.8553,
    "ARG_OF_PERICENTER": 14.4796,
    "MEAN_ANOMALY": 345.6429,
    "EPHEMERIS_TYPE": 0,
    "CLASSIFICATION_TYPE": "U",
    "NORAD_CAT_ID": 37849,
    "ELEMENT_SET_NO": 999,
    "REV_AT_EPOCH": 75798,
    "BSTAR": 0.000044124833,
    "MEAN_MOTION_DOT": 4.9e-7,
    "MEAN_MOTION_DDOT": 0
   }
  },
  {
   "norad": 54754,
   "name": "SWOT",
   "intl": "2022-173A",
   "group": "resource",
   "gcat": {
    "class": "C",
    "category": "EOSCI",
    "owner": "CNES/JPL",
    "state": "F"
   },
   "omm": {
    "OBJECT_NAME": "SWOT",
    "OBJECT_ID": "2022-173A",
    "EPOCH": "2026-06-13T21:58:38.139744",
    "MEAN_MOTION": 14.00169254,
    "ECCENTRICITY": 0.00002477,
    "INCLINATION": 77.6108,
    "RA_OF_ASC_NODE": 39.7266,
    "ARG_OF_PERICENTER": 96.0935,
    "MEAN_ANOMALY": 264.0244,
    "EPHEMERIS_TYPE": 0,
    "CLASSIFICATION_TYPE": "U",
    "NORAD_CAT_ID": 54754,
    "ELEMENT_SET_NO": 999,
    "REV_AT_EPOCH": 17869,
    "BSTAR": 0.000058037679,
    "MEAN_MOTION_DOT": 8.3e-7,
    "MEAN_MOTION_DDOT": 0
   }
  },
  {
   "norad": 36605,
   "name": "TANDEM-X",
   "intl": "2010-030A",
   "group": "resource",
   "gcat": {
    "class": null,
    "category": "IMG-R",
    "owner": "DLR2/EASF",
    "state": "D"
   },
   "omm": {
    "OBJECT_NAME": "TANDEM-X",
    "OBJECT_ID": "2010-030A",
    "EPOCH": "2026-06-13T08:54:45.777024",
    "MEAN_MOTION": 15.19145408,
    "ECCENTRICITY": 0.0001853,
    "INCLINATION": 97.4453,
    "RA_OF_ASC_NODE": 172.1345,
    "ARG_OF_PERICENTER": 92.9116,
    "MEAN_ANOMALY": 267.2331,
    "EPHEMERIS_TYPE": 0,
    "CLASSIFICATION_TYPE": "U",
    "NORAD_CAT_ID": 36605,
    "ELEMENT_SET_NO": 999,
    "REV_AT_EPOCH": 88606,
    "BSTAR": 0.000029649083,
    "MEAN_MOTION_DOT": 0.00000556,
    "MEAN_MOTION_DDOT": 0
   }
  },
  {
   "norad": 25397,
   "name": "TECHSAT 1B (GO-32)",
   "intl": "1998-043D",
   "group": "resource",
   "gcat": {
    "class": "A",
    "category": "COM",
    "owner": "TECN",
    "state": "IL"
   },
   "omm": {
    "OBJECT_NAME": "TECHSAT 1B (GO-32)",
    "OBJECT_ID": "1998-043D",
    "EPOCH": "2026-06-13T21:40:58.461024",
    "MEAN_MOTION": 14.24427873,
    "ECCENTRICITY": 0.0000883,
    "INCLINATION": 99.0066,
    "RA_OF_ASC_NODE": 157.5792,
    "ARG_OF_PERICENTER": 170.1525,
    "MEAN_ANOMALY": 189.967,
    "EPHEMERIS_TYPE": 0,
    "CLASSIFICATION_TYPE": "U",
    "NORAD_CAT_ID": 25397,
    "ELEMENT_SET_NO": 999,
    "REV_AT_EPOCH": 45086,
    "BSTAR": 0.000044228741,
    "MEAN_MOTION_DOT": 5.6e-7,
    "MEAN_MOTION_DDOT": 0
   }
  },
  {
   "norad": 25994,
   "name": "TERRA",
   "intl": "1999-068A",
   "group": "resource",
   "gcat": {
    "class": "C",
    "category": "IMG",
    "owner": "GSFC",
    "state": "US"
   },
   "omm": {
    "OBJECT_NAME": "TERRA",
    "OBJECT_ID": "1999-068A",
    "EPOCH": "2026-06-13T22:23:53.268288",
    "MEAN_MOTION": 14.61100771,
    "ECCENTRICITY": 0.0001328,
    "INCLINATION": 97.9457,
    "RA_OF_ASC_NODE": 214.6084,
    "ARG_OF_PERICENTER": 201.6119,
    "MEAN_ANOMALY": 206.069,
    "EPHEMERIS_TYPE": 0,
    "CLASSIFICATION_TYPE": "U",
    "NORAD_CAT_ID": 25994,
    "ELEMENT_SET_NO": 999,
    "REV_AT_EPOCH": 40913,
    "BSTAR": 0.00008192911,
    "MEAN_MOTION_DOT": 0.00000358,
    "MEAN_MOTION_DDOT": 0
   }
  },
  {
   "norad": 31698,
   "name": "TERRASAR-X",
   "intl": "2007-026A",
   "group": "resource",
   "gcat": {
    "class": null,
    "category": "IMG-R",
    "owner": "DLR2/EASF",
    "state": "D"
   },
   "omm": {
    "OBJECT_NAME": "TERRASAR-X",
    "OBJECT_ID": "2007-026A",
    "EPOCH": "2026-06-13T07:19:54.724800",
    "MEAN_MOTION": 15.19146801,
    "ECCENTRICITY": 0.00016306,
    "INCLINATION": 97.4448,
    "RA_OF_ASC_NODE": 172.0669,
    "ARG_OF_PERICENTER": 86.5072,
    "MEAN_ANOMALY": 273.6349,
    "EPHEMERIS_TYPE": 0,
    "CLASSIFICATION_TYPE": "U",
    "NORAD_CAT_ID": 31698,
    "ELEMENT_SET_NO": 999,
    "REV_AT_EPOCH": 5263,
    "BSTAR": 0.000029393025,
    "MEAN_MOTION_DOT": 0.0000055,
    "MEAN_MOTION_DDOT": 0
   }
  },
  {
   "norad": 33396,
   "name": "THEOS",
   "intl": "2008-049A",
   "group": "resource",
   "gcat": {
    "class": "C",
    "category": "IMG",
    "owner": "GISTDA",
    "state": "T"
   },
   "omm": {
    "OBJECT_NAME": "THEOS",
    "OBJECT_ID": "2008-049A",
    "EPOCH": "2026-06-13T22:32:32.207424",
    "MEAN_MOTION": 14.20131694,
    "ECCENTRICITY": 0.00012508,
    "INCLINATION": 98.5578,
    "RA_OF_ASC_NODE": 222.3282,
    "ARG_OF_PERICENTER": 81.8361,
    "MEAN_ANOMALY": 278.2958,
    "EPHEMERIS_TYPE": 0,
    "CLASSIFICATION_TYPE": "U",
    "NORAD_CAT_ID": 33396,
    "ELEMENT_SET_NO": 999,
    "REV_AT_EPOCH": 91750,
    "BSTAR": -0.000035818138,
    "MEAN_MOTION_DOT": -0.00000119,
    "MEAN_MOTION_DDOT": 0
   }
  },
  {
   "norad": 55973,
   "name": "TIANMU-1 03",
   "intl": "2023-039A",
   "group": "weather",
   "gcat": {
    "class": "B",
    "category": "MET",
    "owner": "TIANMU",
    "state": "CN"
   },
   "omm": {
    "OBJECT_NAME": "TIANMU-1 03",
    "OBJECT_ID": "2023-039A",
    "EPOCH": "2026-06-13T22:42:02.128608",
    "MEAN_MOTION": 15.47201732,
    "ECCENTRICITY": 0.00042508,
    "INCLINATION": 97.5222,
    "RA_OF_ASC_NODE": 338.7887,
    "ARG_OF_PERICENTER": 107.0848,
    "MEAN_ANOMALY": 253.0867,
    "EPHEMERIS_TYPE": 0,
    "CLASSIFICATION_TYPE": "U",
    "NORAD_CAT_ID": 55973,
    "ELEMENT_SET_NO": 999,
    "REV_AT_EPOCH": 18033,
    "BSTAR": 0.00031518123,
    "MEAN_MOTION_DOT": 0.00015944,
    "MEAN_MOTION_DDOT": 0
   }
  }
 ]
}
