TECHSAT 1B (GO-32)      
1 25397U 98043D   26164.90345441  .00000056  00000+0  44229-4 0  9994
2 25397  99.0066 157.5792 0000883 170.1525 189.9670 14.24427873450869
TERRA                   
1 25994U 99068A   26164.93325542  .00000358  00000+0  81929-4 0  9991
2 25994  97.9457 214.6084 0001328 201.6119 206.0690 14.61100771409139
TERRASAR-X              
1 31698U 07026A   26164.30549450  .00000550  00000+0  29393-4 0  9990
2 31698  97.4448 172.0669 0001630  86.5072 273.6349 15.19146801 52630
THEOS                   
1 33396U 08049A   26164.93926166 -.00000119  00000+0 -35818-4 0  9997
2 33396  98.5578 222.3282 0001250  81.8361 278.2958 14.20131694917508
TANDEM-X                
1 36605U 10030A   26164.37136316  .00000556  00000+0  29649-4 0  9992
2 36605  97.4453 172.1345 0001853  92.9116 267.2331 15.19145408886062
SUOMI NPP               
1 37849U 11061A   26164.95721161  .00000049  00000+0  44125-4 0  9993
2 37849  98.7954 105.8553 0001714  14.4796 345.6429 14.19516754757988
SWOT                    
1 54754U 22173A   26164.91571921  .00000083  00000+0  58038-4 0  9992
2 54754  77.6108  39.7266 0000247  96.0935 264.0244 14.00169254178699
TIANMU-1 03             
1 55973U 23039A   26164.94585797  .00015944  00000+0  31518-3 0  9992
2 55973  97.5222 338.7887 0004250 107.0848 253.0867 15.47201732180339
STRIX-6                 
1 68291U 26056A   26164.26388036  .00003270  00000+0  27927-3 0  9991
2 68291  50.2840   8.3419 0016334 228.6665 131.2879 15.00143369 12684
STRIX-7                 
1 69177U 26112A   26164.84563482  .00002682  00000+0  22127-3 0  9995
2 69177  44.9059 210.0001 0023461  27.9913 332.2215 15.01423080  3379
